{"type":"FeatureCollection","features":[{"type":"Feature","id":0,"geometry":{"type":"Point","coordinates":[112.027694,-6.859494]},"properties":{"FID":0,"Halte":"Terminal Kambang Putih","RuteBus":"Rute 1","JamOP":"05.45-07.30; 13.00-16.00"}},{"type":"Feature","id":1,"geometry":{"type":"Point","coordinates":[112.021079,-6.876447]},"properties":{"FID":1,"Halte":"SMAN 4 Tuban","RuteBus":"Rute 1","JamOP":"05.45-07.30; 13.00-16.00"}},{"type":"Feature","id":2,"geometry":{"type":"Point","coordinates":[112.018363,-6.884753]},"properties":{"FID":2,"Halte":"SMPN 4 Tuban","RuteBus":"Rute 1","JamOP":"05.45-07.30; 13.00-16.00"}},{"type":"Feature","id":3,"geometry":{"type":"Point","coordinates":[112.014999,-6.894835]},"properties":{"FID":3,"Halte":"Perempatan Kuthi","RuteBus":"Rute 1","JamOP":"05.45-07.30; 13.00-16.00"}},{"type":"Feature","id":4,"geometry":{"type":"Point","coordinates":[112.03998,-6.896559]},"properties":{"FID":4,"Halte":"Masjid Al-Falah","RuteBus":"Rute 1","JamOP":"05.45-07.30; 13.00-16.00"}},{"type":"Feature","id":5,"geometry":{"type":"Point","coordinates":[112.047791,-6.894325]},"properties":{"FID":5,"Halte":"Perempatan Kembangijo","RuteBus":"Rute 1","JamOP":"05.45-07.30; 13.00-16.00"}},{"type":"Feature","id":6,"geometry":{"type":"Point","coordinates":[112.040073,-6.892767]},"properties":{"FID":6,"Halte":"Poltekkes","RuteBus":"Rute 1","JamOP":"05.45-07.30; 13.00-16.00"}},{"type":"Feature","id":7,"geometry":{"type":"Point","coordinates":[112.052273,-6.887074]},"properties":{"FID":7,"Halte":"SMPN 2 Tuban","RuteBus":"Rute 1","JamOP":"05.45-07.30; 13.00-16.00"}},{"type":"Feature","id":8,"geometry":{"type":"Point","coordinates":[112.058109,-6.890451]},"properties":{"FID":8,"Halte":"Polsek Tuban","RuteBus":"Rute 1","JamOP":"05.45-07.30; 13.00-16.00"}},{"type":"Feature","id":9,"geometry":{"type":"Point","coordinates":[112.07243,-6.896193]},"properties":{"FID":9,"Halte":"SMPN 6 Tuban","RuteBus":"Rute 1","JamOP":"05.45-07.30; 13.00-16.00"}},{"type":"Feature","id":10,"geometry":{"type":"Point","coordinates":[112.068344,-6.901862]},"properties":{"FID":10,"Halte":"SMAN 1 Tuban","RuteBus":"Rute 1","JamOP":"05.45-07.30; 13.00-16.00"}},{"type":"Feature","id":11,"geometry":{"type":"Point","coordinates":[112.074826,-6.907659]},"properties":{"FID":11,"Halte":"Pertigaan Perut Bumi","RuteBus":"Rute 1","JamOP":"05.45-07.30; 13.00-16.00"}},{"type":"Feature","id":12,"geometry":{"type":"Point","coordinates":[112.080471,-6.904611]},"properties":{"FID":12,"Halte":"SMAN 3 Tuban","RuteBus":"Rute 1","JamOP":"05.45-07.30; 13.00-16.00"}},{"type":"Feature","id":13,"geometry":{"type":"Point","coordinates":[112.080993,-6.912831]},"properties":{"FID":13,"Halte":"Semanding","RuteBus":"Rute 2","JamOP":"05.45-07.30; 13.00-16.00"}},{"type":"Feature","id":14,"geometry":{"type":"Point","coordinates":[112.074646,-6.907909]},"properties":{"FID":14,"Halte":"Pertigaan Perut Bumi","RuteBus":"Rute 2","JamOP":"05.45-07.30; 13.00-16.00"}},{"type":"Feature","id":15,"geometry":{"type":"Point","coordinates":[112.068267,-6.901871]},"properties":{"FID":15,"Halte":"SMAN 1 Tuban","RuteBus":"Rute 2","JamOP":"05.45-07.30; 13.00-16.00"}},{"type":"Feature","id":16,"geometry":{"type":"Point","coordinates":[112.059981,-6.89906]},"properties":{"FID":16,"Halte":"Perempatan Pegadaian","RuteBus":"Rute 2","JamOP":"05.45-07.30; 13.00-16.00"}},{"type":"Feature","id":17,"geometry":{"type":"Point","coordinates":[112.048874,-6.900868]},"properties":{"FID":17,"Halte":"SMAN 2 Tuban","RuteBus":"Rute 2","JamOP":"05.45-07.30; 13.00-16.00"}},{"type":"Feature","id":18,"geometry":{"type":"Point","coordinates":[112.052104,-6.887436]},"properties":{"FID":18,"Halte":"MTsN 1 Tuban","RuteBus":"Rute 2","JamOP":"05.45-07.30; 13.00-16.00"}},{"type":"Feature","id":19,"geometry":{"type":"Point","coordinates":[112.054735,-6.901575]},"properties":{"FID":19,"Halte":"Pertigaan Merik","RuteBus":"Rute 2","JamOP":"05.45-07.30; 13.00-16.00"}},{"type":"Feature","id":20,"geometry":{"type":"Point","coordinates":[112.045744,-6.899421]},"properties":{"FID":20,"Halte":"Polres Tuban","RuteBus":"Rute 2","JamOP":"05.45-07.30; 13.00-16.00"}},{"type":"Feature","id":21,"geometry":{"type":"Point","coordinates":[112.040158,-6.893049]},"properties":{"FID":21,"Halte":"Kemenag Tuban","RuteBus":"Rute 2","JamOP":"05.45-07.30; 13.00-16.00"}},{"type":"Feature","id":22,"geometry":{"type":"Point","coordinates":[112.039852,-6.896808]},"properties":{"FID":22,"Halte":"Masjid Al-Falah","RuteBus":"Rute 2","JamOP":"05.45-07.30; 13.00-16.00"}},{"type":"Feature","id":23,"geometry":{"type":"Point","coordinates":[112.014997,-6.894708]},"properties":{"FID":23,"Halte":"Perempatan Kuthi","RuteBus":"Rute 2","JamOP":"05.45-07.30; 13.00-16.00"}},{"type":"Feature","id":24,"geometry":{"type":"Point","coordinates":[112.018261,-6.88472]},"properties":{"FID":24,"Halte":"SMPN 4 Tuban","RuteBus":"Rute 2","JamOP":"05.45-07.30; 13.00-16.00"}},{"type":"Feature","id":25,"geometry":{"type":"Point","coordinates":[112.020888,-6.876629]},"properties":{"FID":25,"Halte":"Mondokan","RuteBus":"Rute 2","JamOP":"05.45-07.30; 13.00-16.00"}},{"type":"Feature","id":26,"geometry":{"type":"Point","coordinates":[112.02755,-6.859316]},"properties":{"FID":26,"Halte":"Terminal Kambang Putih","RuteBus":"Rute 2","JamOP":"05.45-07.30; 13.00-16.00"}}]}